STARLINK-37194
1 68397U 26063T   26092.75002314 -.01819410  99872-3 -35726-2 0  9990
2 68397  97.2815 233.5554 0001611  65.7478 116.0867 16.00255178  2321
